{
  "norad_id": 51862,
  "name": "STARLINK-3508",
  "history": [
    {
      "epoch": "2026-03-28T19:14:48.302016Z",
      "apogee_km": 540.7556020954835,
      "perigee_km": 538.7115097036267,
      "latitude_deg": -7.83008110491757e-06,
      "longitude_deg": 168.40536393150575,
      "height_km": 540.6942795967426,
      "semi_major_axis_km": 6917.870555899554,
      "eccentricity": 0.00014774,
      "inclination_deg": 53.217,
      "raan_deg": 283.3238,
      "arg_perigee_deg": 93.6586,
      "mean_anomaly_deg": 266.4575,
      "mean_motion_rev_day": 15.08843217
    }
  ]
}