{"fetched_at":"2026-03-29T16:36:15Z","count":15609,"tles":[{"name":"STARLINK-3508","line1":"1 51862U 22022L   26087.80194794  .00001275  00000+0  98191-4 0  9991","line2":"2 51862  53.2170 283.3238 0001477  93.6586 266.4575 15.08843217226056","category":"Starlink"}]}